start=new Date('2021-11-04T00:00:00.000Z').valueOf();
sats=[{"TIME_SYSTEM":"UTC","APOAPSIS":"548.471","TLE_LINE1":"1 47897U 21021AP  21307.89008555 -.00001313  00000-0 -69300-4 0  9996","RA_OF_ASC_NODE":"195.0634","TLE_LINE2":"2 47897  53.0537 195.0634 0001766  72.5340 287.5842 15.06388627 37034","RCS_SIZE":"MEDIUM","SITE":"AFETR","GP_ID":"188858682","PERIOD":"95.593","EPHEMERIS_TYPE":"0","MEAN_MOTION":"15.06388627","FILE":"3200165","DECAY_DATE":null,"OBJECT_NAME":"STARLINK-2357","CLASSIFICATION_TYPE":"U","OBJECT_ID":"2021-021AP","BSTAR":"-0.00006930000000","ARG_OF_PERICENTER":"72.5340","NORAD_CAT_ID":"47897","COUNTRY_CODE":"US","MEAN_ELEMENT_THEORY":"SGP4","CENTER_NAME":"EARTH","EPOCH":"2021-11-03T21:21:43.391520","ELEMENT_SET_NO":"999","INCLINATION":"53.0537","OBJECT_TYPE":"PAYLOAD","SEMIMAJOR_AXIS":"6925.383","MEAN_MOTION_DOT":"-0.00001313","REF_FRAME":"TEME","REV_AT_EPOCH":"3703","LAUNCH_DATE":"2021-03-14","MEAN_ANOMALY":"287.5842","ECCENTRICITY":"0.00017660","PERIAPSIS":"546.025","MEAN_MOTION_DDOT":"0.0000000000000"},{"RA_OF_ASC_NODE":"195.3659","TLE_LINE1":"1 47898U 21021AQ  21307.81731347  .00000103  00000-0  25800-4 0  9992","APOAPSIS":"548.305","EPHEMERIS_TYPE":"0","PERIOD":"95.593","TLE_LINE2":"2 47898  53.0560 195.3659 0001547  69.2560 290.8595 15.06393529 36965","RCS_SIZE":"LARGE","GP_ID":"188858932","SITE":"AFETR","TIME_SYSTEM":"UTC","ARG_OF_PERICENTER":"69.2560","BSTAR":"0.00002580000000","NORAD_CAT_ID":"47898","CENTER_NAME":"EARTH","COUNTRY_CODE":"US","MEAN_ELEMENT_THEORY":"SGP4","MEAN_MOTION":"15.06393529","FILE":"3200165","CLASSIFICATION_TYPE":"U","OBJECT_ID":"2021-021AQ","DECAY_DATE":null,"OBJECT_NAME":"STARLINK-2358","REF_FRAME":"TEME","MEAN_MOTION_DOT":"0.00000103","REV_AT_EPOCH":"3696","ELEMENT_SET_NO":"999","EPOCH":"2021-11-03T19:36:55.883808","INCLINATION":"53.0560","SEMIMAJOR_AXIS":"6925.368","OBJECT_TYPE":"PAYLOAD","MEAN_MOTION_DDOT":"0.0000000000000","PERIAPSIS":"546.162","MEAN_ANOMALY":"290.8595","LAUNCH_DATE":"2021-03-14","ECCENTRICITY":"0.00015470"},{"OBJECT_TYPE":"PAYLOAD","SEMIMAJOR_AXIS":"6925.326","INCLINATION":"53.0551","ELEMENT_SET_NO":"999","EPOCH":"2021-11-03T19:32:55.372992","REV_AT_EPOCH":"3716","MEAN_MOTION_DOT":"0.00001778","REF_FRAME":"TEME","ECCENTRICITY":"0.00014570","MEAN_ANOMALY":"292.6874","LAUNCH_DATE":"2021-03-14","MEAN_MOTION_DDOT":"0.0000000000000","PERIAPSIS":"546.182","TIME_SYSTEM":"UTC","PERIOD":"95.592","EPHEMERIS_TYPE":"0","GP_ID":"188859183","SITE":"AFETR","TLE_LINE2":"2 47899  53.0551 185.3757 0001457  67.4270 292.6874 15.06407409 37168","RCS_SIZE":"LARGE","RA_OF_ASC_NODE":"185.3757","TLE_LINE1":"1 47899U 21021AR  21307.81452978  .00001778  00000-0  13821-3 0  9991","APOAPSIS":"548.200","OBJECT_ID":"2021-021AR","CLASSIFICATION_TYPE":"U","DECAY_DATE":null,"OBJECT_NAME":"STARLINK-2359","MEAN_MOTION":"15.06407409","FILE":"3200165","CENTER_NAME":"EARTH","COUNTRY_CODE":"US","MEAN_ELEMENT_THEORY":"SGP4","NORAD_CAT_ID":"47899","BSTAR":"0.00013821000000","ARG_OF_PERICENTER":"67.4270"},{"RA_OF_ASC_NODE":"194.9729","TLE_LINE1":"1 47900U 21021AS  21307.90483284  .00005013  00000-0  35518-3 0  9991","APOAPSIS":"548.209","PERIOD":"95.592","EPHEMERIS_TYPE":"0","SITE":"AFETR","GP_ID":"188859434","RCS_SIZE":"LARGE","TLE_LINE2":"2 47900  53.0557 194.9729 0001452  78.2225 281.8927 15.06403350 37033","TIME_SYSTEM":"UTC","NORAD_CAT_ID":"47900","ARG_OF_PERICENTER":"78.2225","BSTAR":"0.00035518000000","COUNTRY_CODE":"US","MEAN_ELEMENT_THEORY":"SGP4","CENTER_NAME":"EARTH","MEAN_MOTION":"15.06403350","FILE":"3200165","CLASSIFICATION_TYPE":"U","OBJECT_ID":"2021-021AS","OBJECT_NAME":"STARLINK-2360","DECAY_DATE":null,"REF_FRAME":"TEME","MEAN_MOTION_DOT":"0.00005013","REV_AT_EPOCH":"3703","ELEMENT_SET_NO":"999","EPOCH":"2021-11-03T21:42:57.557376","SEMIMAJOR_AXIS":"6925.338","OBJECT_TYPE":"PAYLOAD","INCLINATION":"53.0557","MEAN_MOTION_DDOT":"0.0000000000000","PERIAPSIS":"546.198","MEAN_ANOMALY":"281.8927","LAUNCH_DATE":"2021-03-14","ECCENTRICITY":"0.00014520"},{"DECAY_DATE":null,"OBJECT_NAME":"STARLINK-2361","CLASSIFICATION_TYPE":"U","OBJECT_ID":"2021-021AT","FILE":"3199758","MEAN_MOTION":"15.06387359","MEAN_ELEMENT_THEORY":"SGP4","COUNTRY_CODE":"US","CENTER_NAME":"EARTH","BSTAR":"0.00005611100000","ARG_OF_PERICENTER":"70.7560","NORAD_CAT_ID":"47901","TIME_SYSTEM":"UTC","TLE_LINE2":"2 47901  53.0528 187.2463 0001409  70.7560 289.3581 15.06387359 37087","RCS_SIZE":"LARGE","GP_ID":"188827928","SITE":"AFETR","PERIOD":"95.593","EPHEMERIS_TYPE":"0","TLE_LINE1":"1 47901U 21021AT  21307.39709677  .00000554  00000-0  56111-4 0  9990","APOAPSIS":"548.228","RA_OF_ASC_NODE":"187.2463","ECCENTRICITY":"0.00014090","LAUNCH_DATE":"2021-03-14","MEAN_ANOMALY":"289.3581","PERIAPSIS":"546.277","MEAN_MOTION_DDOT":"0.0000000000000","INCLINATION":"53.0528","SEMIMAJOR_AXIS":"6925.387","OBJECT_TYPE":"PAYLOAD","EPOCH":"2021-11-03T09:31:49.160928","ELEMENT_SET_NO":"999","REV_AT_EPOCH":"3708","REF_FRAME":"TEME","MEAN_MOTION_DOT":"0.00000554"},{"MEAN_MOTION_DDOT":"0.0000000000000","PERIAPSIS":"546.135","MEAN_ANOMALY":"291.2870","LAUNCH_DATE":"2021-03-14","ECCENTRICITY":"0.00015800","REF_FRAME":"TEME","MEAN_MOTION_DOT":"0.00001420","REV_AT_EPOCH":"3699","ELEMENT_SET_NO":"999","EPOCH":"2021-11-03T22:04:13.220544","INCLINATION":"53.0540","OBJECT_TYPE":"PAYLOAD","SEMIMAJOR_AXIS":"6925.364","ARG_OF_PERICENTER":"68.8288","BSTAR":"0.00011424000000","NORAD_CAT_ID":"47902","MEAN_ELEMENT_THEORY":"SGP4","COUNTRY_CODE":"US","CENTER_NAME":"EARTH","FILE":"3200165","MEAN_MOTION":"15.06395016","OBJECT_ID":"2021-021AU","CLASSIFICATION_TYPE":"U","OBJECT_NAME":"STARLINK-2362","DECAY_DATE":null,"RA_OF_ASC_NODE":"204.8909","TLE_LINE1":"1 47902U 21021AU  21307.91959746  .00001420  00000-0  11424-3 0  9993","APOAPSIS":"548.323","EPHEMERIS_TYPE":"0","PERIOD":"95.592","TLE_LINE2":"2 47902  53.0540 204.8909 0001580  68.8288 291.2870 15.06395016 36999","RCS_SIZE":"LARGE","SITE":"AFETR","GP_ID":"188858432","TIME_SYSTEM":"UTC"},{"TIME_SYSTEM":"UTC","APOAPSIS":"548.329","TLE_LINE1":"1 47903U 21021AV  21307.87720405  .00002857  00000-0  21061-3 0  9990","RA_OF_ASC_NODE":"185.0958","TLE_LINE2":"2 47903  53.0555 185.0958 0001623  66.7437 293.3722 15.06402801 37509","RCS_SIZE":"LARGE","GP_ID":"188859684","SITE":"AFETR","PERIOD":"95.592","EPHEMERIS_TYPE":"0","FILE":"3200165","MEAN_MOTION":"15.06402801","OBJECT_NAME":"STARLINK-2363","DECAY_DATE":null,"OBJECT_ID":"2021-021AV","CLASSIFICATION_TYPE":"U","ARG_OF_PERICENTER":"66.7437","BSTAR":"0.00021061000000","NORAD_CAT_ID":"47903","COUNTRY_CODE":"US","MEAN_ELEMENT_THEORY":"SGP4","CENTER_NAME":"EARTH","EPOCH":"2021-11-03T21:03:10.429920","ELEMENT_SET_NO":"999","INCLINATION":"53.0555","SEMIMAJOR_AXIS":"6925.340","OBJECT_TYPE":"PAYLOAD","REF_FRAME":"TEME","MEAN_MOTION_DOT":"0.00002857","REV_AT_EPOCH":"3750","LAUNCH_DATE":"2021-03-14","MEAN_ANOMALY":"293.3722","ECCENTRICITY":"0.00016230","PERIAPSIS":"546.081","MEAN_MOTION_DDOT":"0.0000000000000"},{"TIME_SYSTEM":"UTC","EPHEMERIS_TYPE":"0","PERIOD":"95.592","RCS_SIZE":"LARGE","TLE_LINE2":"2 47904  53.0544 185.4028 0001613  72.4202 287.6963 15.06400699 37138","SITE":"AFETR","GP_ID":"188859935","RA_OF_ASC_NODE":"185.4028","TLE_LINE1":"1 47904U 21021AW  21307.80716105  .00000157  00000-0  29473-4 0  9993","APOAPSIS":"548.328","CLASSIFICATION_TYPE":"U","OBJECT_ID":"2021-021AW","DECAY_DATE":null,"OBJECT_NAME":"STARLINK-2364","MEAN_MOTION":"15.06400699","FILE":"3200165","CENTER_NAME":"EARTH","COUNTRY_CODE":"US","MEAN_ELEMENT_THEORY":"SGP4","ARG_OF_PERICENTER":"72.4202","BSTAR":"0.00002947300000","NORAD_CAT_ID":"47904","INCLINATION":"53.0544","OBJECT_TYPE":"PAYLOAD","SEMIMAJOR_AXIS":"6925.346","ELEMENT_SET_NO":"999","EPOCH":"2021-11-03T19:22:18.714720","REV_AT_EPOCH":"3713","REF_FRAME":"TEME","MEAN_MOTION_DOT":"0.00000157","ECCENTRICITY":"0.00016130","MEAN_ANOMALY":"287.6963","LAUNCH_DATE":"2021-03-14","MEAN_MOTION_DDOT":"0.0000000000000","PERIAPSIS":"546.094"},{"LAUNCH_DATE":"2021-03-14","MEAN_ANOMALY":"283.8320","ECCENTRICITY":"0.00016470","PERIAPSIS":"546.083","MEAN_MOTION_DDOT":"0.0000000000000","EPOCH":"2021-11-03T09:43:47.034336","ELEMENT_SET_NO":"999","SEMIMAJOR_AXIS":"6925.358","OBJECT_TYPE":"PAYLOAD","INCLINATION":"53.0554","MEAN_MOTION_DOT":"-0.00000681","REF_FRAME":"TEME","REV_AT_EPOCH":"3720","MEAN_MOTION":"15.06396771","FILE":"3199758","OBJECT_NAME":"STARLINK-2365","DECAY_DATE":null,"CLASSIFICATION_TYPE":"U","OBJECT_ID":"2021-021AX","NORAD_CAT_ID":"47905","BSTAR":"-0.00002685000000","ARG_OF_PERICENTER":"76.2853","MEAN_ELEMENT_THEORY":"SGP4","COUNTRY_CODE":"US","CENTER_NAME":"EARTH","TIME_SYSTEM":"UTC","APOAPSIS":"548.364","TLE_LINE1":"1 47905U 21021AX  21307.40540549 -.00000681  00000-0 -26850-4 0  9997","RA_OF_ASC_NODE":"187.2094","GP_ID":"188827429","SITE":"AFETR","RCS_SIZE":"LARGE","TLE_LINE2":"2 47905  53.0554 187.2094 0001647  76.2853 283.8320 15.06396771 37202","PERIOD":"95.592","EPHEMERIS_TYPE":"0"},{"ARG_OF_PERICENTER":"291.6758","BSTAR":"0.00034746000000","NORAD_CAT_ID":"47906","COUNTRY_CODE":"US","CENTER_NAME":"EARTH","MEAN_ELEMENT_THEORY":"SGP4","FILE":"3200165","MEAN_MOTION":"15.71440295","OBJECT_NAME":"STARLINK-2366","DECAY_DATE":null,"OBJECT_ID":"2021-021AY","CLASSIFICATION_TYPE":"U","APOAPSIS":"361.000","TLE_LINE1":"1 47906U 21021AY  21307.86515619  .00044996  00000-0  34746-3 0  9995","RA_OF_ASC_NODE":"139.0887","TLE_LINE2":"2 47906  53.0489 139.0887 0009235 291.6758  68.3275 15.71440295 37919","RCS_SIZE":"LARGE","SITE":"AFETR","GP_ID":"188858933","PERIOD":"91.636","EPHEMERIS_TYPE":"0","TIME_SYSTEM":"UTC","PERIAPSIS":"348.564","MEAN_MOTION_DDOT":"0.0000000000000","LAUNCH_DATE":"2021-03-14","MEAN_ANOMALY":"68.3275","ECCENTRICITY":"0.00092350","MEAN_MOTION_DOT":"0.00044996","REF_FRAME":"TEME","REV_AT_EPOCH":"3791","EPOCH":"2021-11-03T20:45:49.494816","ELEMENT_SET_NO":"999","INCLINATION":"53.0489","SEMIMAJOR_AXIS":"6732.917","OBJECT_TYPE":"PAYLOAD"}];
